[{"OBJECT_NAME":"OBJECT A","OBJECT_ID":"2023-085A","EPOCH":"2026-03-09T21:42:39.504096","MEAN_MOTION":15.28003151,"ECCENTRICITY":0.00073195,"INCLINATION":97.4858,"RA_OF_ASC_NODE":178.2033,"ARG_OF_PERICENTER":32.2499,"MEAN_ANOMALY":327.9186,"EPHEMERIS_TYPE":0,"CLASSIFICATION_TYPE":"U","NORAD_CAT_ID":57004,"ELEMENT_SET_NO":999,"REV_AT_EPOCH":15139,"BSTAR":0.00063583858,"MEAN_MOTION_DOT":0.0001733,"MEAN_MOTION_DDOT":0},{"OBJECT_NAME":"STARLINK-31829","OBJECT_ID":"2024-091T","EPOCH":"2026-03-09T07:06:29.071584","MEAN_MOTION":15.30159829,"ECCENTRICITY":0.00014123,"INCLINATION":53.1626,"RA_OF_ASC_NODE":28.7501,"ARG_OF_PERICENTER":111.3087,"MEAN_ANOMALY":248.8065,"EPHEMERIS_TYPE":0,"CLASSIFICATION_TYPE":"U","NORAD_CAT_ID":59770,"ELEMENT_SET_NO":999,"REV_AT_EPOCH":10294,"BSTAR":-0.0001478243,"MEAN_MOTION_DOT":-4.729e-5,"MEAN_MOTION_DDOT":0}]
